norad_id,name,regime,epoch,line1,line2,inclination,eccentricity,mean_motion,raan,arg_pericenter,mean_anomaly
25049,SIRIUS 2 (GE-1E),GEO,20193.48732487,1 25049U 97071A   20193.48732487 -.00000329 +00000-0 +00000-0 0 0001\,2 25049 008.4081 047.9612 0005661 017.9077 182.1780 00.9940832608258,8.4081,0.0005661,0.99408326,47.9612,17.9077,182.178
25049,SIRIUS 2 (GE-1E),GEO,20193.91778154,1 25049U 97071A   20193.91778154 -.00000330 +00000-0 +00000-0 0 0001\,2 25049 008.4088 047.9588 0005642 018.2131 335.9247 00.9940817608258,8.4088,0.0005642,0.99408176,47.9588,18.2131,335.9247
25049,SIRIUS 2 (GE-1E),GEO,20193.98948948,1 25049U 97071A   20193.98948948 -.00000330 +00000-0 +00000-0 0 0001\,2 25049 008.4089 047.9584 0005641 018.2176 001.5834 00.9940815808259,8.4089,0.0005641,0.99408158,47.9584,18.2176,1.5834
25049,SIRIUS 2 (GE-1E),GEO,20194.99384812,1 25049U 97071A   20194.99384812 -.00000328  00000-0  00000+0 0  6871\,2 25049   8.4105  47.9527 0005615  18.7459   0.4924  0.99407739 82686,8.4105,0.0005615,0.99407739,47.9527,18.7459,0.4924
25049,SIRIUS 2 (GE-1E),GEO,20195.46715924,1 25049U 97071A   20195.46715924 -.00000327 +00000-0 +00000-0 0 0001\,2 25049 008.4112 047.9500 0005609 018.9720 169.6551 00.9940757808260,8.4112,0.0005609,0.99407578,47.95,18.972,169.6551
25049,SIRIUS 2 (GE-1E),GEO,20195.82215377,1 25049U 97071A   20195.82215377 -.00000326 +00000-0 +00000-0 0 0001\,2 25049 008.4117 047.9480 0005593 019.2363 296.4346 00.9940740808260,8.4117,0.0005593,0.99407408,47.948,19.2363,296.4346
25049,SIRIUS 2 (GE-1E),GEO,20196.50032743,1 25049U 97071A   20196.50032743 -.00000323 +00000-0 +00000-0 0 0001\,2 25049 008.4127 047.9442 0005576 019.5983 178.7769 00.9940715608261,8.4127,0.0005576,0.99407156,47.9442,19.5983,178.7769
25049,SIRIUS 2 (GE-1E),GEO,20196.99424479,1 25049U 97071A   20196.99424479 -.00000320  00000-0  00000+0 0  6880\,2 25049   8.4135  47.9414 0005550  19.8953 355.2415  0.99406939 82703,8.4135,0.000555,0.99406939,47.9414,19.8953,355.2415
25049,SIRIUS 2 (GE-1E),GEO,20197.50470251,1 25049U 97071A   20197.50470251 -.00000316 +00000-0 +00000-0 0 0001\,2 25049 008.4143 047.9385 0005549 020.1099 177.7061 00.9940668208262,8.4143,0.0005549,0.99406682,47.9385,20.1099,177.7061
25049,SIRIUS 2 (GE-1E),GEO,20198.47549500,1 25049U 97071A   20198.47549500 -.00000307 +00000-0 +00000-0 0 0001\,2 25049 008.4158 047.9329 0005515 020.6700 164.5684 00.9940623708263,8.4158,0.0005515,0.99406237,47.9329,20.67,164.5684
25049,SIRIUS 2 (GE-1E),GEO,20199.49771550,1 25049U 97071A   20199.49771550 -.00000296  00000-0  00000+0 0  6896\,2 25049   8.4173  47.9270 0005474  21.2623 169.8009  0.99405735 82724,8.4173,0.0005474,0.99405735,47.927,21.2623,169.8009
25049,SIRIUS 2 (GE-1E),GEO,20200.51772241,1 25049U 97071A   20200.51772241 -.00000283 +00000-0 +00000-0 0 0001\,2 25049 008.4189 047.9210 0005432 021.8314 174.2629 00.9940522308265,8.4189,0.0005432,0.99405223,47.921,21.8314,174.2629
25049,SIRIUS 2 (GE-1E),GEO,20201.52207441,1 25049U 97071A   20201.52207441 -.00000268  00000-0  00000+0 0  6908\,2 25049   8.4204  47.9150 0005379  22.4157 173.1044  0.99404688 82740,8.4204,0.0005379,0.99404688,47.915,22.4157,173.1044
25049,SIRIUS 2 (GE-1E),GEO,20202.47896806,1 25049U 97071A   20202.47896806 -.00000252 +00000-0 +00000-0 0 0001\,2 25049 008.4219 047.9093 0005325 022.9629 154.9983 00.9940419708267,8.4219,0.0005325,0.99404197,47.9093,22.9629,154.9983
25049,SIRIUS 2 (GE-1E),GEO,20202.52641991,1 25049U 97071A   20202.52641991 -.00000251 +00000-0 +00000-0 0 0001\,2 25049 008.4219 047.9090 0005323 022.9879 171.9545 00.9940416908267,8.4219,0.0005323,0.99404169,47.909,22.9879,171.9545
25049,SIRIUS 2 (GE-1E),GEO,20203.02854983,1 25049U 97071A   20203.02854983 -.00000242 +00000-0 +00000-0 0 0001\,2 25049 008.4227 047.9060 0005299 023.1838 351.4547 00.9940393108268,8.4227,0.0005299,0.99403931,47.906,23.1838,351.4547
25049,SIRIUS 2 (GE-1E),GEO,20203.53073994,1 25049U 97071A   20203.53073994 -.00000233  00000-0  00000+0 0  6918\,2 25049   8.4235  47.9030 0005273  23.4669 170.8885  0.99403692 82766,8.4235,0.0005273,0.99403692,47.903,23.4669,170.8885
25049,SIRIUS 2 (GE-1E),GEO,20204.53504542,1 25049U 97071A   20204.53504542 -.00000213 +00000-0 +00000-0 0 0001\,2 25049 008.4250 047.8970 0005215 023.9394 169.8194 00.9940316508269,8.425,0.0005215,0.99403165,47.897,23.9394,169.8194
25049,SIRIUS 2 (GE-1E),GEO,20205.53942824,1 25049U 97071A   20205.53942824 -.00000191  00000-0  00000+0 0  6921\,2 25049   8.4265  47.8910 0005156  24.3694 168.8201  0.99402689 82789,8.4265,0.0005156,0.99402689,47.891,24.3694,168.8201
25049,SIRIUS 2 (GE-1E),GEO,20206.54373263,1 25049U 97071A   20206.54373263 -.00000168 +00000-0 +00000-0 0 0001\,2 25049 008.4280 047.8850 0005098 024.7733 167.8179 00.9940225708271,8.428,0.0005098,0.99402257,47.885,24.7733,167.8179
25049,SIRIUS 2 (GE-1E),GEO,20207.04594984,1 25049U 97071A   20207.04594984 -.00000157 +00000-0 +00000-0 0 0001\,2 25049 008.4288 047.8820 0005075 024.9910 347.3233 00.9940204308272,8.4288,0.0005075,0.99402043,47.882,24.991,347.3233
25049,SIRIUS 2 (GE-1E),GEO,20207.54810403,1 25049U 97071A   20207.54810403 -.00000145  00000-0  00000+0 0  6931\,2 25049   8.4296  47.8791 0005041  25.1409 166.8738  0.99401842 82802,8.4296,0.0005041,0.99401842,47.8791,25.1409,166.8738
25049,SIRIUS 2 (GE-1E),GEO,20208.55246574,1 25049U 97071A   20208.55246574 -.00000121 +00000-0 +00000-0 0 0001\,2 25049 008.4311 047.8732 0004988 025.4565 165.9763 00.9940145208273,8.4311,0.0004988,0.99401452,47.8732,25.4565,165.9763
25049,SIRIUS 2 (GE-1E),GEO,20209.55677281,1 25049U 97071A   20209.55677281 -.00000097  00000-0  00000+0 0  6946\,2 25049   8.4326  47.8673 0004939  25.7162 165.1144  0.99401120 82826,8.4326,0.0004939,0.9940112,47.8673,25.7162,165.1144
25049,SIRIUS 2 (GE-1E),GEO,20210.48943938,1 25049U 97071A   20210.48943938 -.00000076 +00000-0 +00000-0 0 0001\,2 25049 008.4340 047.8618 0004892 026.0001 138.5896 00.9940083308275,8.434,0.0004892,0.99400833,47.8618,26.0001,138.5896
25049,SIRIUS 2 (GE-1E),GEO,20210.56114730,1 25049U 97071A   20210.56114730 -.00000075 +00000-0 +00000-0 0 0001\,2 25049 008.4341 047.8614 0004885 026.0175 164.2335 00.9940082308275,8.4341,0.0004885,0.99400823,47.8614,26.0175,164.2335
25049,SIRIUS 2 (GE-1E),GEO,20211.06332053,1 25049U 97071A   20211.06332053 -.00000063 +00000-0 +00000-0 0 0001\,2 25049 008.4348 047.8584 0004863 026.2328 343.7227 00.9940069208276,8.4348,0.0004863,0.99400692,47.8584,26.2328,343.7227
25049,SIRIUS 2 (GE-1E),GEO,20211.56545942,1 25049U 97071A   20211.56545942 -.00000052  00000-0  00000+0 0  6972\,2 25049   8.4356  47.8554 0004834  26.3188 163.3297  0.99400589 82845,8.4356,0.0004834,0.99400589,47.8554,26.3188,163.3297
25049,SIRIUS 2 (GE-1E),GEO,20212.06765720,1 25049U 97071A   20212.06765720 -.00000041 +00000-0 +00000-0 0 0001\,2 25049 008.4363 047.8524 0004816 026.4982 342.8634 00.9940048808277,8.4363,0.0004816,0.99400488,47.8524,26.4982,342.8634
25049,SIRIUS 2 (GE-1E),GEO,20213.03941535,1 25049U 97071A   20213.03941535 -.00000021 +00000-0 +00000-0 0 0001\,2 25049 008.4378 047.8466 0004774 026.7607 330.3462 00.9940030008277,8.4378,0.0004774,0.994003,47.8466,26.7607,330.3462
25049,SIRIUS 2 (GE-1E),GEO,20213.57409331,1 25049U 97071A   20213.57409331 -.00000010  00000-0  00000+0 0  6981\,2 25049   8.4386  47.8434 0004750  26.8555 161.5887  0.99400269 82867,8.4386,0.000475,0.99400269,47.8434,26.8555,161.5887
25049,SIRIUS 2 (GE-1E),GEO,20214.07624821,1 25049U 97071A   20214.07624821 -.00000001 +00000-0 +00000-0 0 0001\,2 25049 008.4394 047.8404 0004734 027.0661 341.0746 00.9940020808279,8.4394,0.0004734,0.99400208,47.8404,27.0661,341.0746
25049,SIRIUS 2 (GE-1E),GEO,20214.84424794,1 25049U 97071A   20214.84424794 +.00000013 +00000-0 +00000-0 0 0001\,2 25049 008.4405 047.8357 0004703 027.2871 255.6848 00.9940018808279,8.4405,0.0004703,0.99400188,47.8357,27.2871,255.6848
25049,SIRIUS 2 (GE-1E),GEO,20215.08057089,1 25049U 97071A   20215.08057089 +.00000018 +00000-0 +00000-0 0 0001\,2 25049 008.4409 047.8344 0004686 027.4723 340.0668 00.9940014708280,8.4409,0.0004686,0.99400147,47.8344,27.4723,340.0668
25049,SIRIUS 2 (GE-1E),GEO,20215.58267876,1 25049U 97071A   20215.58267876 +.00000026 +00000-0 +00000-0 0 0699\,2 25049 008.4417 047.8313 0004667 027.5561 159.6650 00.9940018608288,8.4417,0.0004667,0.99400186,47.8313,27.5561,159.665
25049,SIRIUS 2 (GE-1E),GEO,20216.51538113,1 25049U 97071A   20216.51538113 +.00000042 +00000-0 +00000-0 0 0001\,2 25049 008.4431 047.8258 0004635 027.8887 133.1020 00.9940022808281,8.4431,0.0004635,0.99400228,47.8258,27.8887,133.102
25049,SIRIUS 2 (GE-1E),GEO,20216.90289219,1 25049U 97071A   20216.90289219 +.00000048 +00000-0 +00000-0 0 0001\,2 25049 008.4438 047.8235 0004634 028.0340 271.6265 00.9940022008281,8.4438,0.0004634,0.9940022,47.8235,28.034,271.6265
25049,SIRIUS 2 (GE-1E),GEO,20217.09367575,1 25049U 97071A   20217.09367575 +.00000051 +00000-0 +00000-0 0 0001\,2 25049 008.4441 047.8223 0004626 028.1214 339.8119 00.9940024908282,8.4441,0.0004626,0.99400249,47.8223,28.1214,339.8119
25049,SIRIUS 2 (GE-1E),GEO,20218.10848413,1 25049U 97071A   20218.10848413  .00000065  00000-0  00000+0 0  7006\,2 25049   8.4456  47.8163 0004592  28.5293 342.5554  0.99400379 82916,8.4456,0.0004592,0.99400379,47.8163,28.5293,342.5554
25049,SIRIUS 2 (GE-1E),GEO,20219.06646503,1 25049U 97071A   20219.06646503 +.00000076 +00000-0 +00000-0 0 0001\,2 25049 008.4472 047.8107 0004565 028.8968 325.0040 00.9940055808283,8.4472,0.0004565,0.99400558,47.8107,28.8968,325.004
25049,SIRIUS 2 (GE-1E),GEO,20219.81827220,1 25049U 97071A   20219.81827220 +.00000083 +00000-0 +00000-0 0 0001\,2 25049 008.4484 047.8064 0004533 029.2376 233.7019 00.9940078208284,8.4484,0.0004533,0.99400782,47.8064,29.2376,233.7019
25049,SIRIUS 2 (GE-1E),GEO,20220.06506486,1 25049U 97071A   20220.06506486 +.00000086 +00000-0 +00000-0 0 0001\,2 25049 008.4488 047.8050 0004522 029.4041 321.8503 00.9940082508284,8.4488,0.0004522,0.99400825,47.805,29.4041,321.8503
